SAR-LUPE 2              
1 31797U 07030A   26198.90259723  .00003877  00000+0  61616-4 0  9998
2 31797  98.1059 307.2541 0005146 211.2385 148.8561 15.54087221 61703
SAPPHIRE                
1 39088U 13009C   26198.90607836  .00000040  00000+0  28749-4 0  9993
2 39088  98.4277  17.6347 0011746 152.1852 207.9964 14.35248045700985
PRAETORIAN SDA_602      
1 65565U 25203A   26198.89344013  .00000046  00000+0  30629-4 0  9990
2 65565  81.3048 342.3386 0007119 111.4028 248.7889 13.83888138 42943
PRAETORIAN SDA_603      
1 65566U 25203B   26198.92158082  .00000128  00000+0  10422-3 0  9993
2 65566  81.3055 342.2326 0010812 109.5356 250.6969 13.83963312 42951
PRAETORIAN SDA_604      
1 65567U 25203C   26198.88859969  .00000045  00000+0  30092-4 0  9995
2 65567  81.3069 342.7246 0006623 115.1402 245.0442 13.83050296 42922
PRAETORIAN SDA_605      
1 65568U 25203D   26198.92033201  .00000057  00000+0  41472-4 0  9991
2 65568  81.3034 342.3343 0009369 106.7348 253.4837 13.83200365 42941
PRAETORIAN SDA_606      
1 65569U 25203E   26198.90550603  .00000028  00000+0  14466-4 0  9991
2 65569  81.3071 342.5872 0007222 109.8655 250.3280 13.83200159 42931
PRAETORIAN SDA_607      
1 65570U 25203F   26198.89477146  .00000074  00000+0  56241-4 0  9999
2 65570  81.3054 342.2144 0010010 108.0552 252.1696 13.83758805 42958
PRAETORIAN SDA_608      
1 65571U 25203G   26198.87717682  .00000045  00000+0  29901-4 0  9991
2 65571  81.3023 342.3930 0007122 114.0572 246.1330 13.83819636 42934
PRAETORIAN SDA_609      
1 65572U 25203H   26198.87339576  .00000211  00000+0  17888-3 0  9999
2 65572  81.3064 342.3738 0008009 109.0554 251.1471 13.84212033 42947
PRAETORIAN SDA_610      
1 65573U 25203J   26198.85963847  .00000071  00000+0  53674-4 0  9990
2 65573  81.3025 342.3737 0007856 113.4281 246.7702 13.83528508 42931
PRAETORIAN SDA_611      
1 65574U 25203K   26198.86896775  .00000330  00000+0  28972-3 0  9997
2 65574  81.3033 342.5486 0006730 117.6760 242.5079 13.83311495 42927
PRAETORIAN SDA_612      
1 65575U 25203L   26198.89253564  .00000111  00000+0  87169-4 0  9995
2 65575  81.3045 342.0378 0010415 108.5037 251.7253 13.85041317 42962
PRAETORIAN SDA_613      
1 65576U 25203M   26198.88776750  .00000046  00000+0  31077-4 0  9996
2 65576  81.3016 342.5520 0006812 108.8395 251.3500 13.82767894 42920
PRAETORIAN SDA_614      
1 65577U 25203N   26198.88751345  .00000039  00000+0  24242-4 0  9998
2 65577  81.3031 342.1278 0008254 106.9728 253.2334 13.84778763 42964
PRAETORIAN SDA_615      
1 65578U 25203P   26198.87195278  .00000190  00000+0  15884-3 0  9994
2 65578  81.3040 342.1247 0010197 107.5638 252.6633 13.84438551 42959
PRAETORIAN SDA_616      
1 65579U 25203Q   26198.86909493  .00000161  00000+0  13549-3 0  9990
2 65579  81.3078 342.7143 0006599 115.9076 244.2761 13.83270506 42921
PRAETORIAN SDA_617      
1 65580U 25203R   26198.89331704  .00000047  00000+0  32255-4 0  9998
2 65580  81.3054 342.5201 0008509 107.2152 252.9936 13.83152367 42937
PRAETORIAN SDA_618      
1 65581U 25203S   26198.91199243  .00000109  00000+0  86517-4 0  9991
2 65581  81.3037 342.0213 0010909 110.1692 250.0639 13.84225911 42965
PRAETORIAN SDA_619      
1 65582U 25203T   26198.88792115  .00000131  00000+0  10778-3 0  9995
2 65582  81.3064 342.3740 0009316 107.8251 252.3923 13.83806125 43578
PRAETORIAN SDA_620      
1 65583U 25203U   26198.92418386  .00000081  00000+0  63435-4 0  9999
2 65583  81.3048 342.3753 0008655 105.3578 254.8535 13.83207747 42946
PRAETORIAN SDA_621      
1 65584U 25203V   26198.88976225  .00000045  00000+0  29750-4 0  9998
2 65584  81.3037 342.3042 0008519 102.5111 257.6999 13.83804021 42940
PRAETORIAN SDA_601      
1 65585U 25203W   26198.87444836  .00000282  00000+0  24693-3 0  9999
2 65585  81.3063 342.6494 0006654 118.4692 241.7135 13.83170958 42921
VICTUS HAZE PUMA        
1 69646U 26142A   26198.28484869  .00002209  00000+0  10157-3 0  9990
2 69646  97.4460  95.5636 0026410 259.4735 100.3525 15.21130484  4240
